{
  "type": "FeatureCollection",
  "features": [
    {
      "type": "Feature",
      "properties": {
        "norad_id": 34492,
        "name": "IRIDIUM 33 DEB",
        "group": "iridium-33-debris",
        "lat": -79.84487714894615,
        "lon": -49.54991181218811,
        "alt_km": 772.6740539185575,
        "timestamp": "2025-12-22T16:55:17.849100+00:00",
        "meta_object_name": "IRIDIUM 33 DEB",
        "meta_object_id": "1997-051GH",
        "meta_epoch": "2025-12-21T16:53:32.785152",
        "meta_mean_motion": 14.25874095,
        "meta_eccentricity": 0.01886842,
        "meta_inclination": 86.4714,
        "meta_ra_of_asc_node": 331.0047,
        "meta_arg_of_pericenter": 209.0268,
        "meta_mean_anomaly": 332.2714,
        "meta_ephemeris_type": 0,
        "meta_classification_type": "U",
        "meta_norad_cat_id": 34492,
        "meta_element_set_no": 999,
        "meta_rev_at_epoch": 85186,
        "meta_bstar": 0.0022430029,
        "meta_mean_motion_dot": 6.457e-05,
        "meta_mean_motion_ddot": 0,
        "tle_line1": "1 34492U 97051GH  25355.70385168  .00006457  00000+0  22430-2 0  9996",
        "tle_line2": "2 34492  86.4714 331.0047 0188684 209.0268 332.2714 14.25874095851869"
      },
      "geometry": {
        "type": "Point",
        "coordinates": [
          -49.54991181218811,
          -79.84487714894615
        ]
      }
    },
    {
      "type": "Feature",
      "properties": {
        "norad_id": 34497,
        "name": "IRIDIUM 33 DEB",
        "group": "iridium-33-debris",
        "lat": -34.07604898514601,
        "lon": -129.3312404139537,
        "alt_km": 808.919197154517,
        "timestamp": "2025-12-22T16:55:17.849111+00:00",
        "meta_object_name": "IRIDIUM 33 DEB",
        "meta_object_id": "1997-051GN",
        "meta_epoch": "2025-12-21T03:02:18.965760",
        "meta_mean_motion": 14.27475874,
        "meta_eccentricity": 0.00780469,
        "meta_inclination": 86.2771,
        "meta_ra_of_asc_node": 48.8187,
        "meta_arg_of_pericenter": 312.1215,
        "meta_mean_anomaly": 76.3389,
        "meta_ephemeris_type": 0,
        "meta_classification_type": "U",
        "meta_norad_cat_id": 34497,
        "meta_element_set_no": 999,
        "meta_rev_at_epoch": 87003,
        "meta_bstar": 0.00042941712,
        "meta_mean_motion_dot": 1.107e-05,
        "meta_mean_motion_ddot": 0,
        "tle_line1": "1 34497U 97051GN  25355.12660840  .00001107  00000+0  42942-3 0  9998",
        "tle_line2": "2 34497  86.2771  48.8187 0078046 312.1215  76.3389 14.27475874870039"
      },
      "geometry": {
        "type": "Point",
        "coordinates": [
          -129.3312404139537,
          -34.07604898514601
        ]
      }
    },
    {
      "type": "Feature",
      "properties": {
        "norad_id": 34508,
        "name": "IRIDIUM 33 DEB",
        "group": "iridium-33-debris",
        "lat": 45.95304748281867,
        "lon": 102.18102056813824,
        "alt_km": 763.2321499691434,
        "timestamp": "2025-12-22T16:55:17.849121+00:00",
        "meta_object_name": "IRIDIUM 33 DEB",
        "meta_object_id": "1997-051GZ",
        "meta_epoch": "2025-12-22T06:41:24.031968",
        "meta_mean_motion": 14.38495257,
        "meta_eccentricity": 0.00666176,
        "meta_inclination": 86.3708,
        "meta_ra_of_asc_node": 98.5996,
        "meta_arg_of_pericenter": 142.363,
        "meta_mean_anomaly": 218.2258,
        "meta_ephemeris_type": 0,
        "meta_classification_type": "U",
        "meta_norad_cat_id": 34508,
        "meta_element_set_no": 999,
        "meta_rev_at_epoch": 87446,
        "meta_bstar": 0.0011650926,
        "meta_mean_motion_dot": 3.671e-05,
        "meta_mean_motion_ddot": 0,
        "tle_line1": "1 34508U 97051GZ  25356.27875037  .00003671  00000+0  11651-2 0  9994",
        "tle_line2": "2 34508  86.3708  98.5996 0066617 142.3630 218.2258 14.38495257874460"
      },
      "geometry": {
        "type": "Point",
        "coordinates": [
          102.18102056813824,
          45.95304748281867
        ]
      }
    },
    {
      "type": "Feature",
      "properties": {
        "norad_id": 34521,
        "name": "IRIDIUM 33 DEB",
        "group": "iridium-33-debris",
        "lat": 37.96112386876182,
        "lon": 28.992362227399326,
        "alt_km": 680.7512343082508,
        "timestamp": "2025-12-22T16:55:17.849132+00:00",
        "meta_object_name": "IRIDIUM 33 DEB",
        "meta_object_id": "1997-051HN",
        "meta_epoch": "2025-12-22T01:58:44.099904",
        "meta_mean_motion": 14.6343915,
        "meta_eccentricity": 0.00026909,
        "meta_inclination": 86.3786,
        "meta_ra_of_asc_node": 26.4343,
        "meta_arg_of_pericenter": 176.1617,
        "meta_mean_anomaly": 183.9616,
        "meta_ephemeris_type": 0,
        "meta_classification_type": "U",
        "meta_norad_cat_id": 34521,
        "meta_element_set_no": 999,
        "meta_rev_at_epoch": 88609,
        "meta_bstar": 0.00078902546,
        "meta_mean_motion_dot": 4.104e-05,
        "meta_mean_motion_ddot": 0,
        "tle_line1": "1 34521U 97051HN  25356.08245486  .00004104  00000+0  78903-3 0  9993",
        "tle_line2": "2 34521  86.3786  26.4343 0002690 176.1617 183.9616 14.63439150886094"
      },
      "geometry": {
        "type": "Point",
        "coordinates": [
          28.992362227399326,
          37.96112386876182
        ]
      }
    },
    {
      "type": "Feature",
      "properties": {
        "norad_id": 34525,
        "name": "IRIDIUM 33 DEB",
        "group": "iridium-33-debris",
        "lat": -23.319323852144795,
        "lon": -135.84277269908756,
        "alt_km": 757.4024377063151,
        "timestamp": "2025-12-22T16:55:17.849142+00:00",
        "meta_object_name": "IRIDIUM 33 DEB",
        "meta_object_id": "1997-051HS",
        "meta_epoch": "2025-12-22T02:55:46.289856",
        "meta_mean_motion": 14.42926723,
        "meta_eccentricity": 0.00063948,
        "meta_inclination": 86.3719,
        "meta_ra_of_asc_node": 42.8388,
        "meta_arg_of_pericenter": 73.6651,
        "meta_mean_anomaly": 343.0258,
        "meta_ephemeris_type": 0,
        "meta_classification_type": "U",
        "meta_norad_cat_id": 34525,
        "meta_element_set_no": 999,
        "meta_rev_at_epoch": 88223,
        "meta_bstar": 0.00030724354,
        "meta_mean_motion_dot": 1.047e-05,
        "meta_mean_motion_ddot": 0,
        "tle_line1": "1 34525U 97051HS  25356.12206354  .00001047  00000+0  30724-3 0  9995",
        "tle_line2": "2 34525  86.3719  42.8388 0006394  73.6651 343.0258 14.42926723882236"
      },
      "geometry": {
        "type": "Point",
        "coordinates": [
          -135.84277269908756,
          -23.319323852144795
        ]
      }
    },
    {
      "type": "Feature",
      "properties": {
        "norad_id": 34529,
        "name": "IRIDIUM 33 DEB",
        "group": "iridium-33-debris",
        "lat": 15.493874123276589,
        "lon": 32.173686938242035,
        "alt_km": 760.0329765997203,
        "timestamp": "2025-12-22T16:55:17.849153+00:00",
        "meta_object_name": "IRIDIUM 33 DEB",
        "meta_object_id": "1997-051HW",
        "meta_epoch": "2025-12-21T09:10:35.665536",
        "meta_mean_motion": 14.4062226,
        "meta_eccentricity": 0.00057974,
        "meta_inclination": 86.3634,
        "meta_ra_of_asc_node": 31.7273,
        "meta_arg_of_pericenter": 151.7059,
        "meta_mean_anomaly": 208.4457,
        "meta_ephemeris_type": 0,
        "meta_classification_type": "U",
        "meta_norad_cat_id": 34529,
        "meta_element_set_no": 999,
        "meta_rev_at_epoch": 88266,
        "meta_bstar": 9.6722833e-05,
        "meta_mean_motion_dot": 3.28e-06,
        "meta_mean_motion_ddot": 0,
        "tle_line1": "1 34529U 97051HW  25355.38235724  .00000328  00000+0  96723-4 0  9992",
        "tle_line2": "2 34529  86.3634  31.7273 0005797 151.7059 208.4457 14.40622260882661"
      },
      "geometry": {
        "type": "Point",
        "coordinates": [
          32.173686938242035,
          15.493874123276589
        ]
      }
    },
    {
      "type": "Feature",
      "properties": {
        "norad_id": 34538,
        "name": "IRIDIUM 33 DEB",
        "group": "iridium-33-debris",
        "lat": -73.18477919810331,
        "lon": -11.254730169445068,
        "alt_km": 734.3143731937244,
        "timestamp": "2025-12-22T16:55:17.849163+00:00",
        "meta_object_name": "IRIDIUM 33 DEB",
        "meta_object_id": "1997-051JF",
        "meta_epoch": "2025-12-22T06:12:04.821696",
        "meta_mean_motion": 14.42700609,
        "meta_eccentricity": 0.00320413,
        "meta_inclination": 86.2762,
        "meta_ra_of_asc_node": 1.3859,
        "meta_arg_of_pericenter": 295.0641,
        "meta_mean_anomaly": 192.9769,
        "meta_ephemeris_type": 0,
        "meta_classification_type": "U",
        "meta_norad_cat_id": 34538,
        "meta_element_set_no": 999,
        "meta_rev_at_epoch": 87893,
        "meta_bstar": 0.00089518329,
        "meta_mean_motion_dot": 3.015e-05,
        "meta_mean_motion_ddot": 0,
        "tle_line1": "1 34538U 97051JF  25356.25838914  .00003015  00000+0  89518-3 0  9998",
        "tle_line2": "2 34538  86.2762   1.3859 0032041 295.0641 192.9769 14.42700609878930"
      },
      "geometry": {
        "type": "Point",
        "coordinates": [
          -11.254730169445068,
          -73.18477919810331
        ]
      }
    }
  ]
}